{
    "links": {
        "self": "http://www.neowsapp.com/rest/v1/neo/3519521?api_key=iIulBulltgU6a56xZRHN4H3l9WmuAYTsLGpBGhQ2"
    },
    "id": "3519521",
    "neo_reference_id": "3519521",
    "name": "(2010 JH3)",
    "designation": "2010 JH3",
    "nasa_jpl_url": "http://ssd.jpl.nasa.gov/sbdb.cgi?sstr=3519521",
    "absolute_magnitude_h": 25.3,
    "estimated_diameter": {
        "kilometers": {
            "estimated_diameter_min": 0.0231502122,
            "estimated_diameter_max": 0.0517654482
        },
        "meters": {
            "estimated_diameter_min": 23.150212221,
            "estimated_diameter_max": 51.7654482198
        },
        "miles": {
            "estimated_diameter_min": 0.0143848705,
            "estimated_diameter_max": 0.0321655483
        },
        "feet": {
            "estimated_diameter_min": 75.9521422633,
            "estimated_diameter_max": 169.8341531374
        }
    },
    "is_potentially_hazardous_asteroid": false,
    "close_approach_data": [
        {
            "close_approach_date": "2010-05-09",
            "close_approach_date_full": "2010-May-09 19:32",
            "epoch_date_close_approach": 1273433520000,
            "relative_velocity": {
                "kilometers_per_second": "14.7493298533",
                "kilometers_per_hour": "53097.5874719948",
                "miles_per_hour": "32992.7759489181"
            },
            "miss_distance": {
                "astronomical": "0.0187810363",
                "lunar": "7.3058231207",
                "kilometers": "2809603.026872681",
                "miles": "1745806.3667817578"
            },
            "orbiting_body": "Earth"
        }
    ],
    "orbital_data": {
        "orbit_id": "8",
        "orbit_determination_date": "2017-04-06 08:57:38",
        "first_observation_date": "2010-05-06",
        "last_observation_date": "2010-05-08",
        "data_arc_in_days": 2,
        "observations_used": 29,
        "orbit_uncertainty": "8",
        "minimum_orbit_intersection": ".0184924",
        "jupiter_tisserand_invariant": "3.927",
        "epoch_osculation": "2455323.5",
        "eccentricity": ".4701978063103474",
        "semi_major_axis": "1.756874447281395",
        "inclination": "19.76466025426824",
        "ascending_node_longitude": "47.37179741683058",
        "orbital_period": "850.568933537133",
        "perihelion_distance": ".930795936206979",
        "perihelion_argument": "226.2771759391907",
        "aphelion_distance": "2.582952958355811",
        "perihelion_time": "2455361.981771196551",
        "mean_anomaly": "343.7127396915989",
        "mean_motion": ".4232461189276243",
        "equinox": "J2000",
        "orbit_class": {
            "orbit_class_type": "APO",
            "orbit_class_description": "Near-Earth asteroid orbits which cross the Earth’s orbit similar to that of 1862 Apollo",
            "orbit_class_range": "a (semi-major axis) > 1.0 AU; q (perihelion) < 1.017 AU"
        }
    },
    "is_sentry_object": false
}